NAVSTAR 43 (USA 132)    
1 24876U 97035A   21057.21731492  .00000008  00000-0  00000-0 0  9993
2 24876  55.4664 174.2507 0047221  56.9859 303.4445  2.00562568173102
NAVSTAR 47 (USA 150)    
1 26360U 00025A   21057.43128765  .00000021  00000-0  00000-0 0  9998
2 26360  53.6935  98.6050 0058047 166.3578 329.9445  2.00563025152421
NAVSTAR 48 (USA 151)    
1 26407U 00040A   21057.42918972  .00000026  00000-0  00000-0 0  9998
2 26407  55.8034 292.1347 0181086 282.5649 173.1336  2.00564427151106
NAVSTAR 51 (USA 166)    
1 27663U 03005A   21056.37618792  .00000029  00000-0  00000-0 0  9990
2 27663  55.8572 291.9711 0120574  36.7429 144.1951  2.00565982132444
NAVSTAR 52 (USA 168)    
1 27704U 03010A   21057.35646838 -.00000035  00000-0  00000-0 0  9991
2 27704  54.7937  42.6393 0244481 291.9340  90.4961  2.00558671131261
NAVSTAR 53 (USA 175)    
1 28129U 03058A   21057.40820966  .00000021  00000-0  00000-0 0  9991
2 28129  53.5037 101.2727 0071984 300.1155  59.2574  2.00572238125943
NAVSTAR 54 (USA 177)    
1 28190U 04009A   21057.08710405 -.00000069  00000-0  00000-0 0  9999
2 28190  56.2212 352.7955 0088278 102.5240  26.3576  2.00570136124092
NAVSTAR 56 (USA 180)    
1 28474U 04045A   21057.17115087 -.00000034  00000-0  00000-0 0  9991
2 28474  55.1309  42.6095 0205859 271.6005 193.9661  2.00569795119588
NAVSTAR 57 (USA 183)    
1 28874U 05038A   21056.63354601 -.00000068  00000-0  00000-0 0  9992
2 28874  56.3101 350.2202 0137337 269.6667 273.0243  2.00577974112979
NAVSTAR 58 (USA 190)    
1 29486U 06042A   21057.24235015  .00000054  00000-0  00000-0 0  9997
2 29486  54.7969 228.2387 0099259  13.0439 168.2287  2.00554938105575
NAVSTAR 59 (USA 192)    
1 29601U 06052A   21056.93245921  .00000030  00000-0  00000-0 0  9993
2 29601  55.8504 290.8726 0082040  66.8658 294.0690  2.00550202104555
NAVSTAR 60 (USA 196)    
1 32260U 07047A   21056.75065474  .00000000  00000-0  00000-0 0  9993
2 32260  53.2163 160.2971 0128700  54.9495 306.2503  2.00574897 97990
NAVSTAR 61 (USA 199)    
1 32384U 07062A   21057.19221872 -.00000067  00000-0  00000-0 0  9996
2 32384  56.4135 350.9019 0013513 127.5891 322.2894  2.00563429 96667
NAVSTAR 62 (USA 201)    
1 32711U 08012A   21057.15623519  .00000053  00000-0  00000-0 0  9990
2 32711  54.5478 227.2864 0146521 225.9215 132.8410  2.00571736 94929
NAVSTAR 64 (USA 206)    
1 35752U 09043A   21057.17961176  .00000024  00000-0  00000-0 0  9997
2 35752  54.7361 104.7566 0058079  49.0187 347.5386  2.00545893 84517
NAVSTAR 65 (USA 213)    
1 36585U 10022A   21057.22044289  .00000034  00000-0  00000-0 0  9995
2 36585  55.1245 286.7154 0096588  53.4314 121.3538  2.00564793 78745
NAVSTAR 66 (USA 232)    
1 37753U 11036A   21057.52384241 -.00000024  00000-0  00000-0 0  9997
2 37753  56.3480  47.2904 0102832  46.0298  75.2818  2.00562305 70432
NAVSTAR 67 (USA 239)    
1 38833U 12053A   21056.83781250  .00000049  00000-0  00000-0 0  9997
2 38833  53.5947 222.9011 0107905  41.0367 319.7415  2.00570017 60693
NAVSTAR 68 (USA 242)    
1 39166U 13023A   21056.20531127 -.00000068  00000-0  00000-0 0  9994
2 39166  55.9591 346.7920 0090070  32.0490 328.5074  2.00563468 57012
NAVSTAR 69 (USA 248)    
1 39533U 14008A   21055.20786559  .00000065  00000-0  00000-0 0  9992
2 39533  53.7021 228.4280 0049621 199.6398 160.1587  2.00555038 50816
NAVSTAR 70 (USA 251)    
1 39741U 14026A   21056.98069585 -.00000024  00000-0  00000-0 0  9998
2 39741  56.3180  46.8388 0025285 296.6564  63.1022  2.00559131 49683
NAVSTAR 71 (USA 256)    
1 40105U 14045A   21056.56876164  .00000001  00000-0  00000-0 0  9992
2 40105  54.6133 165.8424 0016999 106.1310 254.0465  2.00576471 47245
NAVSTAR 72 (USA 258)    
1 40294U 14068A   21054.45259541  .00000003  00000-0  00000-0 0  9998
2 40294  55.4823 106.9073 0031059  45.0595 315.2672  2.00566562 46301
NAVSTAR 73 (USA 260)    
1 40534U 15013A   21054.09066327  .00000034  00000-0  00000-0 0  9998
2 40534  54.0358 284.5302 0056888  13.4005 346.8161  2.00553384 42910
NAVSTAR 74 (USA 262)    
1 40730U 15033A   21057.24634179 -.00000065  00000-0  00000-0 0  9999
2 40730  55.4691 345.8052 0062358 356.9075   3.0714  2.00577069 41143
NAVSTAR 75 (USA 265)    
1 41019U 15062A   21057.28947297  .00000026  00000-0  00000-0 0  9990
2 41019  55.4783 106.6270 0066250 213.5512 146.1123  2.00563843 38986
NAVSTAR 76 (USA 266)    
1 41328U 16007A   21056.38367096  .00000000  00000-0  00000-0 0  9998
2 41328  54.8430 166.4018 0047834 222.9780 136.6370  2.00567041 37007
NAVSTAR 77 (USA 289)    
1 43873U 18109A   21057.39003609  .00000008  00000-0  00000-0 0  9997
2 43873  55.0245 168.6807 0011933 199.7581  63.8906  2.00573456 16259
NAVSTAR 78 (USA 293)    
1 44506U 19056A   21057.47800017 -.00000025  00000-0  00000-0 0  9990
2 44506  55.4125  48.0426 0011948 185.0311  37.5659  2.00562678 11226
NAVSTAR 79 (USA 304)    
1 45854U 20041A   21056.75227273  .00000023  00000-0  00000-0 0  9997
2 45854  55.1901 105.3305 0009248 149.9745 210.1632  2.00566934  5171
